stk.v.11.0
WrittenBy    formation-sat-exporter

BEGIN Ephemeris
    NumberOfEphemerisPoints 181
    ScenarioEpoch 21 Mar 2026 07:38:40.000000000 UTCG
    InterpolationMethod     Lagrange
    InterpolationOrder      7
    CentralBody             Earth
    CoordinateSystem        TEME
    DistanceUnit            Kilometers

    BEGIN EphemerisTimePosVel
        124.000000000  5.29473975294712e+03 -1.42078576695444e+03  4.25443013575703e+03 -4.75603857479838e+00 -5.32067268073076e-02  5.90121142909763e+00
        125.000000000  5.28998055347092e+03 -1.42083812522314e+03  4.26032881236868e+03 -4.76235943777525e+00 -5.15097981578278e-02  5.89614061717526e+00
        126.000000000  5.28521503595245e+03 -1.42088878652620e+03  4.26622241463836e+03 -4.76867465807289e+00 -4.98127958468843e-02  5.89106274614288e+00
        127.000000000  5.28044320603821e+03 -1.42093775079096e+03  4.27211093550990e+03 -4.77498422809262e+00 -4.81157218936179e-02  5.88597782192740e+00
        128.000000000  5.27566506938223e+03 -1.42098501794679e+03  4.27799436793312e+03 -4.78128814024214e+00 -4.64185783173186e-02  5.88088585046434e+00
        129.000000000  5.27088063164622e+03 -1.42103058792506e+03  4.28387270486371e+03 -4.78758638693543e+00 -4.47213671374838e-02  5.87578683769783e+00
        130.000000000  5.26608989849935e+03 -1.42107446065920e+03  4.28974593926342e+03 -4.79387896059293e+00 -4.30240903737404e-02  5.87068078958049e+00
        131.000000000  5.26129287561857e+03 -1.42111663608463e+03  4.29561406409974e+03 -4.80016585364123e+00 -4.13267500459546e-02  5.86556771207373e+00
        132.000000000  5.25648956868815e+03 -1.42115711413879e+03  4.30147707234640e+03 -4.80644705851358e+00 -3.96293481740777e-02  5.86044761114725e+00
        133.000000000  5.25167998340012e+03 -1.42119589476114e+03  4.30733495698289e+03 -4.81272256764938e+00 -3.79318867782942e-02  5.85532049277953e+00
        134.000000000  5.24686412545398e+03 -1.42123297789318e+03  4.31318771099477e+03 -4.81899237349451e+00 -3.62343678789253e-02  5.85018636295755e+00
        135.000000000  5.24204200055677e+03 -1.42126836347841e+03  4.31903532737362e+03 -4.82525646850132e+00 -3.45367934964428e-02  5.84504522767677e+00
        136.000000000  5.23721361442316e+03 -1.42130205146235e+03  4.32487779911691e+03 -4.83151484512840e+00 -3.28391656515099e-02  5.83989709294134e+00
        137.000000000  5.23237897277519e+03 -1.42133404179256e+03  4.33071511922831e+03 -4.83776749584100e+00 -3.11414863648869e-02  5.83474196476377e+00
        138.000000000  5.22753808134259e+03 -1.42136433441861e+03  4.33654728071734e+03 -4.84401441311063e+00 -2.94437576575468e-02  5.82957984916523e+00
        139.000000000  5.22269094586263e+03 -1.42139292929208e+03  4.34237427659950e+03 -4.85025558941518e+00 -2.77459815506132e-02  5.82441075217549e+00
        140.000000000  5.21783757208001e+03 -1.42141982636659e+03  4.34819609989646e+03 -4.85649101723912e+00 -2.60481600653354e-02  5.81923467983271e+00
        141.000000000  5.21297796574692e+03 -1.42144502559776e+03  4.35401274363595e+03 -4.86272068907344e+00 -2.43502952231003e-02  5.81405163818356e+00
        142.000000000  5.20811213262303e+03 -1.42146852694325e+03  4.35982420085175e+03 -4.86894459741555e+00 -2.26523890454310e-02  5.80886163328322e+00
        143.000000000  5.20324007847569e+03 -1.42149033036275e+03  4.36563046458352e+03 -4.87516273476920e+00 -2.09544435540473e-02  5.80366467119553e+00
        144.000000000  5.19836180907967e+03 -1.42151043581794e+03  4.37143152787707e+03 -4.88137509364467e+00 -1.92564607708019e-02  5.79846075799276e+00
        145.000000000  5.19347733021708e+03 -1.42152884327253e+03  4.37722738378445e+03 -4.88758166655894e+00 -1.75584427176187e-02  5.79324989975553e+00
        146.000000000  5.18858664767768e+03 -1.42154555269228e+03  4.38301802536361e+03 -4.89378244603529e+00 -1.58603914166211e-02  5.78803210257313e+00
        147.000000000  5.18368976725866e+03 -1.42156056404495e+03  4.38880344567864e+03 -4.89997742460356e+00 -1.41623088900437e-02  5.78280737254326e+00
        148.000000000  5.17878669476462e+03 -1.42157387730033e+03  4.39458363779976e+03 -4.90616659480018e+00 -1.24641971602479e-02  5.77757571577210e+00
        149.000000000  5.17387743600769e+03 -1.42158549243022e+03  4.40035859480328e+03 -4.91234994916807e+00 -1.07660582497359e-02  5.77233713837429e+00
        150.000000000  5.16896199680740e+03 -1.42159540940845e+03  4.40612830977165e+03 -4.91852748025671e+00 -9.06789418111916e-03  5.76709164647294e+00
        151.000000000  5.16404038299074e+03 -1.42160362821088e+03  4.41189277579345e+03 -4.92469918062216e+00 -7.36970697713456e-03  5.76183924619962e+00
        152.000000000  5.15911260039222e+03 -1.42161014881537e+03  4.41765198596330e+03 -4.93086504282695e+00 -5.67149866068157e-03  5.75657994369440e+00
        153.000000000  5.15417865485365e+03 -1.42161497120184e+03  4.42340593338210e+03 -4.93702505944030e+00 -3.97327125471332e-03  5.75131374510571e+00
        154.000000000  5.14923855222433e+03 -1.42161809535220e+03  4.42915461115688e+03 -4.94317922303800e+00 -2.27502678233216e-03  5.74604065659044e+00
        155.000000000  5.14429229836103e+03 -1.42161952125040e+03  4.43489801240072e+03 -4.94932752620233e+00 -5.76767266774331e-04  5.74076068431400e+00
        156.000000000  5.13933989912787e+03 -1.42161924888240e+03  4.44063613023298e+03 -4.95546996152229e+00  1.12150526863699e-03  5.73547383445013e+00
        157.000000000  5.13438136039641e+03 -1.42161727823620e+03  4.44636895777915e+03 -4.96160652159343e+00  2.81978880047051e-03  5.73018011318103e+00
        158.000000000  5.12941668804557e+03 -1.42161360930181e+03  4.45209648817093e+03 -4.96773719901796e+00  4.51808130518156e-03  5.72487952669731e+00
        159.000000000  5.12444588796171e+03 -1.42160824207128e+03  4.45781871454622e+03 -4.97386198640471e+00  6.21638075911934e-03  5.71957208119799e+00
        160.000000000  5.11946896603855e+03 -1.42160117653865e+03  4.46353563004908e+03 -4.97998087636914e+00  7.91468513853112e-03  5.71425778289049e+00
        161.000000000  5.11448592817724e+03 -1.42159241270003e+03  4.46924722782979e+03 -4.98609386153332e+00  9.61299241954828e-03  5.70893663799068e+00
        162.000000000  5.10949678028622e+03 -1.42158195055352e+03  4.47495350104492e+03 -4.99220093452611e+00  1.13113005782491e-02  5.70360865272270e+00
        163.000000000  5.10450152828138e+03 -1.42156979009926e+03  4.48065444285717e+03 -4.99830208798289e+00  1.30096075905674e-02  5.69827383331921e+00
        164.000000000  5.09950017808591e+03 -1.42155593133940e+03  4.48635004643558e+03 -5.00439731454586e+00  1.47079114323819e-02  5.69293218602113e+00
        165.000000000  5.09449273563037e+03 -1.42154037427813e+03  4.49204030495535e+03 -5.01048660686381e+00  1.64062100794529e-02  5.68758371707783e+00
        166.000000000  5.08947920685269e+03 -1.42152311892165e+03  4.49772521159797e+03 -5.01656995759228e+00  1.81045015074634e-02  5.68222843274702e+00
        167.000000000  5.08445959769816e+03 -1.42150416527820e+03  4.50340475955113e+03 -5.02264735939344e+00  1.98027836920029e-02  5.67686633929480e+00
        168.000000000  5.07943391411936e+03 -1.42148351335803e+03  4.50907894200889e+03 -5.02871880493625e+00  2.15010546085852e-02  5.67149744299561e+00
        169.000000000  5.07440216207618e+03 -1.42146116317342e+03  4.51474775217156e+03 -5.03478428689644e+00  2.31993122326507e-02  5.66612175013216e+00
        170.000000000  5.06936434753586e+03 -1.42143711473867e+03  4.52041118324573e+03 -5.04084379795640e+00  2.48975545395544e-02  5.66073926699559e+00
        171.000000000  5.06432047647299e+03 -1.42141136807012e+03  4.52606922844424e+03 -5.04689733080527e+00  2.65957795045682e-02  5.65534999988536e+00
        172.000000000  5.05927055486943e+03 -1.42138392318612e+03  4.53172188098628e+03 -5.05294487813897e+00  2.82939851028856e-02  5.64995395510925e+00
        173.000000000  5.05421458871433e+03 -1.42135478010705e+03  4.53736913409734e+03 -5.05898643266018e+00  2.99921693096450e-02  5.64455113898337e+00
        174.000000000  5.04915258400414e+03 -1.42132393885530e+03  4.54301098100924e+03 -5.06502198707837e+00  3.16903300999083e-02  5.63914155783211e+00
        175.000000000  5.04408454674264e+03 -1.42129139945533e+03  4.54864741496009e+03 -5.07105153410974e+00  3.33884654486648e-02  5.63372521798823e+00
        176.000000000  5.03901048294084e+03 -1.42125716193356e+03  4.55427842919439e+03 -5.07707506647734e+00  3.50865733308423e-02  5.62830212579274e+00
        177.000000000  5.03393039861704e+03 -1.42122122631849e+03  4.55990401696296e+03 -5.08309257691101e+00  3.67846517213121e-02  5.62287228759497e+00
        178.000000000  5.02884429979681e+03 -1.42118359264062e+03  4.56552417152297e+03 -5.08910405814739e+00  3.84826985948765e-02  5.61743570975255e+00
        179.000000000  5.02375219251294e+03 -1.42114426093249e+03  4.57113888613799e+03 -5.09510950293000e+00  4.01807119263033e-02  5.61199239863133e+00
        180.000000000  5.01865408280553e+03 -1.42110323122863e+03  4.57674815407792e+03 -5.10110890400911e+00  4.18786896902766e-02  5.60654236060551e+00
    END EphemerisTimePosVel
END Ephemeris
